BRAC ONNESHA            
1 42823U 98067MX  18074.17023344  .00020495  00000-0  22141-3 0  9996
2 42823  51.6364 118.1409 0004145 189.9671 170.1242 15.63592675 39104
NIGERIAEDUSAT-1         
1 42824U 98067MY  18073.41743957  .00014117  00000-0  15541-3 0  9992
2 42824  51.6375 122.1241 0004093 187.8636 172.2295 15.63427043 39002
CORVUS BC2              
1 42846U 17042X   18073.69802264  .00000202  00000-0  25424-4 0  9999
2 42846  97.6048 339.9432 0010430 143.8524 216.3402 14.91772745 36282
CORVUS BC1              
1 42847U 17042Y   18073.68195651  .00000366  00000-0  41571-4 0  9996
2 42847  97.6049 339.9631 0010090 143.3586 216.8325 14.91871738 36270
SILU-1 (SILKROAD 1)     
1 42903U 17021F   18074.16536220  .00019560  00000-0  17845-3 0  9993
2 42903  42.7776 176.0018 0010797 351.6631  82.6900 15.67420309 35151
MIRATA                  
1 43015U 17073C   18073.84970552  .00000822  00000-0  71119-4 0  9995
2 43015  97.6990   8.8818 0258011 218.3908 139.8696 14.77873284 17209
ASTERIA                 
1 43020U 98067NH  18073.74074793  .00009892  00000-0  14065-3 0  9996
2 43020  51.6398 128.0526 0002058 161.9720 198.1345 15.57063970 17763
DELLINGR (RBLE)         
1 43021U 98067NJ  18074.15977320  .00006343  00000-0  95716-4 0  9992
2 43021  51.6396 126.3460 0001977 161.7737 198.3325 15.56164312 17823
TECHEDSAT 6             
1 43026U 98067NK  18074.17277275  .00153558  00000-0  12773-2 0  9992
2 43026  51.6346 121.1586 0003545  10.6264 349.4807 15.69124758 17799
OSIRIS-3U               
1 43027U 98067NL  18074.16261819  .00024605  00000-0  31071-3 0  9992
2 43027  51.6383 124.8637 0002285 134.7021 225.4158 15.59408688 17728
AEROCUBE 7B             
1 43042U 17071F   18073.80758593  .00003180  00000-0  93602-4 0  9999
2 43042  51.6393 141.0947 0005024 287.5623  72.4812 15.38159712 15071
AEROCUBE 7C             
1 43043U 17071G   18073.80694483  .00002941  00000-0  87296-4 0  9993
2 43043  51.6395 141.0920 0004924 287.1778  72.8667 15.38182809 15042
CHEFSAT                 
1 43044U 17071H   18073.79266430  .00006166  00000-0  16910-3 0  9996
2 43044  51.6394 141.0013 0004996 283.3502  76.6925 15.38636490 15046
ASGARDIA 1              
1 43049U 17071N   18074.18615454  .00003547  00000-0  10260-3 0  9991
2 43049  51.6394 139.1266 0002401 312.9915  47.0867 15.38343341 15097
ISARA                   
1 43050U 17071P   18073.78881477  .00005041  00000-0  14029-3 0  9996
2 43050  51.6394 140.9778 0002442 306.6198  53.4561 15.38602129 15044
FAUNA                   
1 43052U 17071R   18073.27222707  .00003216  00000-0  93738-4 0  9994
2 43052  51.6397 143.5281 0002293 304.9615  55.1154 15.38428703 14956
CORVUS BC3              
1 43118U 18004H   18073.93933113  .00000955  00000-0  44820-4 0  9992
2 43118  97.5449 136.2953 0012219  68.4790 291.7748 15.22064675  9370
MICROMAS-2A             
1 43131U 18004W   18074.12482863  .00002231  00000-0  99514-4 0  9999
2 43131  97.5453 136.5122 0011453  71.3943 288.8536 15.22415212  9406
GOMX4-B                 
1 43196U 18015E   18074.08997302 -.00000070  00000-0  00000+0 0  9993
2 43196  97.3296 205.0792 0020363 120.1317 240.0781 15.23594376  6200
GOMX4-A                 
1 43197U 18015F   18074.10883034  .00001246  00000-0  54821-4 0  9993
2 43197  97.3303 205.0741 0020864 126.3800 320.4073 15.23535080  6210
